GLOBALSTAR M035         
1 25851U 99037A   26001.61323492 -.00000094  00000+0 -11497-2 0  9996
2 25851  51.9985 332.4549 0013690 305.1216 226.4438 11.04541019118181
GLOBALSTAR M032         
1 25852U 99037B   26001.62968345 -.00000067  00000+0  67562-6 0  9997
2 25852  51.9937 143.9251 0013540 138.8935 221.2887 11.19075527157004
GLOBALSTAR M051         
1 25853U 99037C   26001.79589295 -.00000098  00000+0 -63993-3 0  9995
2 25853  51.9806 281.7735 0000695  49.9120 310.1752 11.42200594155088
GLOBALSTAR M030         
1 25854U 99037D   26001.59365725 -.00000070  00000+0  98945-4 0  9999
2 25854  51.9892  75.7464 0003392  53.0941 307.0186 11.55113308172971
GLOBALSTAR M048         
1 25872U 99041A   26001.63363235 -.00000024  00000+0  12535-2 0  9991
2 25872  51.9338 224.8706 0013255 162.7544 209.5755 11.33861726147495
GLOBALSTAR M026         
1 25873U 99041B   26001.47613498 -.00000227  00000+0 -59893-2 0  9997
2 25873  52.0017  88.6251 0001723 213.5927 234.2465 11.06845192170443
GLOBALSTAR M043         
1 25874U 99041C   26001.20244007 -.00000081  00000+0 -38338-3 0  9995
2 25874  51.9439 341.4258 0013447 289.9905 162.8974 11.25699879145179
GLOBALSTAR M028         
1 25875U 99041D   26001.28432237 -.00000093  00000+0  50477-4 0  9999
2 25875  51.9647 322.3683 0063316 141.3279 219.2140 12.50593230214965
